H1 CPF 01  gfz 2022 03 13 01  5721 terrasarx 
H2 0702601  6201 31698    2022 03 13 00 59 42 2022 03 18 00 00 42   120 1 1  0 0 0
H9
10 0 59651  69822.000000  0   -1176798.069   -502588.829   6757765.933
10 0 59651  69942.000000  0   -2007138.074   -148693.842   6577173.634
10 0 59651  70062.000000  0   -2796112.925    221966.089   6280990.119
10 0 59651  70182.000000  0   -3529711.213    602075.283   5874388.442
10 0 59651  70302.000000  0   -4195007.317    983913.076   5364479.529
10 0 59651  70422.000000  0   -4780394.560   1359508.452   4760193.900
10 0 59651  70542.000000  0   -5275795.023   1720804.815   4072130.764
10 0 59651  70662.000000  0   -5672841.340   2059830.657   3312375.365
10 0 59651  70782.000000  0   -5965026.205   2368872.711   2494288.497
10 0 59651  70902.000000  0   -6147817.341   2640647.791   1632270.945
10 0 59651  71022.000000  0   -6218734.638   2868469.424    741505.654
10 0 59651  71142.000000  0   -6177385.019   3046404.337   -162317.435
10 0 59651  71262.000000  0   -6025455.175   3169414.787  -1063286.160
10 0 59651  71382.000000  0   -5766662.433   3233482.706  -1945555.207
10 0 59651  71502.000000  0   -5406664.743   3235713.535  -2793633.834
10 0 59651  71622.000000  0   -4952931.138   3174415.754  -3592664.032
10 0 59651  71742.000000  0   -4414578.375   3049155.266  -4328683.338
10 0 59651  71862.000000  0   -3802178.151   2860783.540  -4988866.690
10 0 59651  71982.000000  0   -3127540.718   2611439.288  -5561743.818
10 0 59651  72102.000000  0   -2403481.493   2304525.090  -6037388.792
10 0 59651  72222.000000  0   -1643573.902   1944659.563  -6407582.552
10 0 59651  72342.000000  0    -861893.217   1537605.127  -6665942.660
10 0 59651  72462.000000  0     -72758.894   1090174.695  -6808022.277
10 0 59651  72582.000000  0     709522.043    610118.300  -6831377.849
10 0 59651  72702.000000  0    1470907.937    105991.749  -6735608.476
10 0 59651  72822.000000  0    2197869.875   -412992.875  -6522361.553
10 0 59651  72942.000000  0    2877626.251   -937130.978  -6195307.222
10 0 59651  73062.000000  0    3498364.804  -1456402.162  -5760081.885
10 0 59651  73182.000000  0    4049446.889  -1960656.601  -5224201.037
10 0 59651  73302.000000  0    4521593.585  -2439811.110  -4596941.355
10 0 59651  73422.000000  0    4907047.477  -2884049.697  -3889190.516
10 0 59651  73542.000000  0    5199707.535  -3284024.164  -3113267.997
10 0 59651  73662.000000  0    5395235.199  -3631051.185  -2282717.727
10 0 59651  73782.000000  0    5491127.166  -3917301.106  -1412074.490
10 0 59651  73902.000000  0    5486752.482  -4135973.988   -516609.291
10 0 59651  74022.000000  0    5383352.858  -4281458.236    387942.504
10 0 59651  74142.000000  0    5184005.128  -4349467.744   1285664.961
10 0 59651  74262.000000  0    4893545.155  -4337152.618   2160750.776
10 0 59651  74382.000000  0    4518456.477  -4243179.871   2997788.583
10 0 59651  74502.000000  0    4066726.846  -4067783.173   3782041.379
10 0 59651  74622.000000  0    3547676.341  -3812781.600   4499711.725
10 0 59651  74742.000000  0    2971759.840  -3481565.186   5138187.801
10 0 59651  74862.000000  0    2350351.454  -3079048.190   5686264.230
10 0 59651  74982.000000  0    1695515.160  -2611592.384   6134336.452
10 0 59651  75102.000000  0    1019766.192  -2086901.835   6474563.303
10 0 59651  75222.000000  0     335829.560  -1513892.442   6700998.017
10 0 59651  75342.000000  0    -343600.381   -902537.953   6809686.277
10 0 59651  75462.000000  0   -1006094.768   -263694.719   6798730.582
10 0 59651  75582.000000  0   -1639716.479    391090.963   6668321.048
10 0 59651  75702.000000  0   -2233234.437   1049790.988   6420732.364
10 0 59651  75822.000000  0   -2776322.683   1700115.397   6060286.717
10 0 59651  75942.000000  0   -3259741.143   2329740.935   5593283.366
10 0 59651  76062.000000  0   -3675496.112   2926545.432   5027895.402
10 0 59651  76182.000000  0   -4016977.058   3478843.369   4374032.350
10 0 59651  76302.000000  0   -4279066.885   3975617.911   3643171.572
10 0 59651  76422.000000  0   -4458223.579   4406745.346   2848159.850
10 0 59651  76542.000000  0   -4552529.837   4763206.441   2002987.049
10 0 59651  76662.000000  0   -4561709.228   5037278.924   1122536.430
10 0 59651  76782.000000  0   -4487109.770   5222705.437    222316.930
10 0 59651  76902.000000  0   -4331655.233   5314834.540   -681817.193
10 0 59651  77022.000000  0   -4099763.560   5310731.003  -1573956.183
10 0 59651  77142.000000  0   -3797232.919   5209247.566  -2438424.502
10 0 59651  77262.000000  0   -3431102.116   5011062.805  -3260062.687
10 0 59651  77382.000000  0   -3009487.436   4718680.078  -4024497.803
10 0 59651  77502.000000  0   -2541401.395   4336389.982  -4718393.954
10 0 59651  77622.000000  0   -2036558.446   3870199.296  -5329679.435
10 0 59651  77742.000000  0   -1505173.133   3327729.582  -5847748.984
10 0 59651  77862.000000  0    -957753.550   2718085.203  -6263639.120
10 0 59651  77982.000000  0    -404894.580   2051694.329  -6570172.039
10 0 59651  78102.000000  0     142923.997   1340128.257  -6762067.660
10 0 59651  78222.000000  0     675531.094    595901.338  -6836025.421
10 0 59651  78342.000000  0    1183249.031   -167745.334  -6790775.716
10 0 59651  78462.000000  0    1657065.407   -937075.242  -6627098.332
10 0 59651  78582.000000  0    2088788.678  -1698097.073  -6347809.452
10 0 59651  78702.000000  0    2471187.588  -2436812.522  -5957718.762
10 0 59651  78822.000000  0    2798111.813  -3139468.635  -5463556.665
10 0 59651  78942.000000  0    3064593.364  -3792813.939  -4873869.846
10 0 59651  79062.000000  0    3266924.281  -4384349.686  -4198882.184
10 0 59651  79182.000000  0    3402709.402  -4902570.882  -3450327.899
10 0 59651  79302.000000  0    3470895.570  -5337196.488  -2641257.677
10 0 59651  79422.000000  0    3471773.918  -5679382.563  -1785815.802
10 0 59651  79542.000000  0    3406954.895  -5921909.891   -898993.749
10 0 59651  79662.000000  0    3279316.345  -6059343.696      3635.667
10 0 59651  79782.000000  0    3092923.858  -6088158.251    906198.338
10 0 59651  79902.000000  0    2852927.421  -6006825.070   1792805.364
10 0 59651  80022.000000  0    2565435.857  -5815860.258   2647843.375
10 0 59651  80142.000000  0    2237371.035  -5517828.932   3456257.641
10 0 59651  80262.000000  0    1876307.663  -5117309.383   4203822.381
10 0 59651  80382.000000  0    1490302.426  -4620817.874   4877395.017
10 0 59651  80502.000000  0    1087717.376  -4036695.209   5465148.230
10 0 59651  80622.000000  0     677039.972  -3374957.884   5956777.397
10 0 59651  80742.000000  0     266704.621  -2647116.685   6343675.822
10 0 59651  80862.000000  0    -135079.037  -1865970.355   6619078.236
10 0 59651  80982.000000  0    -520488.363  -1045377.434   6778172.678
10 0 59651  81102.000000  0    -882238.611   -200008.898   6818180.722
10 0 59651  81222.000000  0   -1213719.589    654915.064   6738403.171
10 0 59651  81342.000000  0   -1509115.983   1503898.706   6540231.133
10 0 59651  81462.000000  0   -1763509.264   2331450.624   6227123.280
10 0 59651  81582.000000  0   -1972960.248   3122366.303   5804549.343
10 0 59651  81702.000000  0   -2134570.366   3862008.701   5279899.755
10 0 59651  81822.000000  0   -2246521.370   4536582.674   4662363.599
10 0 59651  81942.000000  0   -2308092.690   5133398.927   3962773.339
10 0 59651  82062.000000  0   -2319655.398   5641121.014   3193418.471
10 0 59651  82182.000000  0   -2282642.876   6049989.197   2367830.062
10 0 59651  82302.000000  0   -2199498.707   6352016.316   1500541.184
10 0 59651  82422.000000  0   -2073602.450   6541151.199    606826.501
10 0 59651  82542.000000  0   -1909175.312   6613404.778   -297573.420
10 0 59651  82662.000000  0   -1711168.440   6566936.050  -1196737.796
10 0 59651  82782.000000  0   -1485135.652   6402094.693  -2074857.497
10 0 59651  82902.000000  0   -1237093.643   6121414.418  -2916522.220
10 0 59651  83022.000000  0    -973375.446   5729563.963  -3706993.775
10 0 59651  83142.000000  0    -700480.558   5233259.067  -4432464.821
10 0 59651  83262.000000  0    -424925.142   4641135.009  -5080297.634
10 0 59651  83382.000000  0    -153095.352   3963585.461  -5639238.209
10 0 59651  83502.000000  0     108893.071   3212570.259  -6099603.984
10 0 59651  83622.000000  0     355325.366   2401396.126  -6453440.904
10 0 59651  83742.000000  0     581005.587   1544477.399  -6694648.701
10 0 59651  83862.000000  0     781360.931    657080.786  -6819076.340
10 0 59651  83982.000000  0     952530.192   -244943.289  -6824585.707
10 0 59651  84102.000000  0    1091435.282  -1145438.634  -6711083.903
10 0 59651  84222.000000  0    1195834.806  -2028225.225  -6480522.864
10 0 59651  84342.000000  0    1264359.684  -2877381.513  -6136869.883
10 0 59651  84462.000000  0    1296530.653  -3677526.782  -5686048.832
10 0 59651  84582.000000  0    1292755.449  -4414099.641  -5135847.924
10 0 59651  84702.000000  0    1254307.767  -5073624.012  -4495795.246
10 0 59651  84822.000000  0    1183287.238  -5643961.017  -3777005.649
10 0 59651  84942.000000  0    1082560.148  -6114541.739  -2991996.693
10 0 59651  85062.000000  0     955683.102  -6476574.018  -2154477.058
10 0 59651  85182.000000  0     806810.920  -6723219.446  -1279110.006
10 0 59651  85302.000000  0     640589.794  -6849734.524   -381255.020
10 0 59651  85422.000000  0     462038.714  -6853571.086    523306.499
10 0 59651  85542.000000  0     276422.215  -6734434.242   1418655.258
10 0 59651  85662.000000  0      89117.549  -6494295.820   2289023.112
10 0 59651  85782.000000  0     -94520.314  -6137361.315   3119080.949
10 0 59651  85902.000000  0    -269292.407  -5669989.554   3894217.183
10 0 59651  86022.000000  0    -430285.025  -5100570.535   4600798.388
10 0 59651  86142.000000  0    -572990.703  -4439365.737   5226411.337
10 0 59651  86262.000000  0    -693417.956  -3698313.344   5760080.264
99
